[{"OBJECT_NAME":"NUSAT-48 (HENRIETTA LEAVITT)","OBJECT_ID":"2024-149AG","EPOCH":"2026-03-09T19:19:17.269536","MEAN_MOTION":15.29812597,"ECCENTRICITY":0.00027538,"INCLINATION":97.3923,"RA_OF_ASC_NODE":150.8264,"ARG_OF_PERICENTER":263.3026,"MEAN_ANOMALY":96.7901,"EPHEMERIS_TYPE":0,"CLASSIFICATION_TYPE":"U","NORAD_CAT_ID":60498,"ELEMENT_SET_NO":999,"REV_AT_EPOCH":8694,"BSTAR":0.00045211745,"MEAN_MOTION_DOT":0.00012988,"MEAN_MOTION_DDOT":0},{"OBJECT_NAME":"STARLINK-32331","OBJECT_ID":"2024-191C","EPOCH":"2026-03-09T22:27:56.403072","MEAN_MOTION":15.2757183,"ECCENTRICITY":8.83e-5,"INCLINATION":42.9982,"RA_OF_ASC_NODE":156.6184,"ARG_OF_PERICENTER":290.7319,"MEAN_ANOMALY":69.3438,"EPHEMERIS_TYPE":0,"CLASSIFICATION_TYPE":"U","NORAD_CAT_ID":61623,"ELEMENT_SET_NO":999,"REV_AT_EPOCH":7753,"BSTAR":3.1885278e-5,"MEAN_MOTION_DOT":6.15e-6,"MEAN_MOTION_DDOT":0}]
